{
  "norad_id": 40367,
  "name": "FENGYUN 2G",
  "history": [
    {
      "epoch": "2026-04-14T19:16:05.324160Z",
      "apogee_km": 35796.24148664474,
      "perigee_km": 35773.28800293488,
      "latitude_deg": 2.044454850880366,
      "longitude_deg": 99.74951486508351,
      "height_km": 35772.99224208821,
      "semi_major_axis_km": 42162.901744789815,
      "eccentricity": 0.0002722,
      "inclination_deg": 5.4779,
      "raan_deg": 73.5655,
      "arg_perigee_deg": 141.366,
      "mean_anomaly_deg": 16.72,
      "mean_motion_rev_day": 1.00278314
    },
    {
      "epoch": "2026-04-15T20:42:04.624992Z",
      "apogee_km": 35796.80092922293,
      "perigee_km": 35773.11370283619,
      "latitude_deg": -0.05653817033937256,
      "longitude_deg": 99.68841546565695,
      "height_km": 35775.26426670555,
      "semi_major_axis_km": 42163.094316029565,
      "eccentricity": 0.0002809,
      "inclination_deg": 5.4805,
      "raan_deg": 73.5535,
      "arg_perigee_deg": 141.4134,
      "mean_anomaly_deg": 39.2479,
      "mean_motion_rev_day": 1.00277627
    },
    {
      "epoch": "2026-04-16T20:57:21.704832Z",
      "apogee_km": 35797.39584246145,
      "perigee_km": 35772.86525340206,
      "latitude_deg": -0.5201416747619896,
      "longitude_deg": 99.68719321267527,
      "height_km": 35775.71702357462,
      "semi_major_axis_km": 42163.267547931755,
      "eccentricity": 0.0002909,
      "inclination_deg": 5.4831,
      "raan_deg": 73.5416,
      "arg_perigee_deg": 142.3936,
      "mean_anomaly_deg": 43.1156,
      "mean_motion_rev_day": 1.00277009
    },
    {
      "epoch": "2026-04-17T22:58:52.016736Z",
      "apogee_km": 35797.932602338326,
      "perigee_km": 35772.653096337854,
      "latitude_deg": -3.2862551079428335,
      "longitude_deg": 99.61603275329631,
      "height_km": 35781.6741706279,
      "semi_major_axis_km": 42163.42984933809,
      "eccentricity": 0.00029978,
      "inclination_deg": 5.4859,
      "raan_deg": 73.528,
      "arg_perigee_deg": 143.6142,
      "mean_anomaly_deg": 73.3724,
      "mean_motion_rev_day": 1.0027643
    },
    {
      "epoch": "2026-04-18T20:12:21.524256Z",
      "apogee_km": 35798.27037101877,
      "perigee_km": 35772.626478363476,
      "latitude_deg": 0.3549722068850995,
      "longitude_deg": 99.75796755041608,
      "height_km": 35773.92727585509,
      "semi_major_axis_km": 42163.585424691126,
      "eccentricity": 0.0003041,
      "inclination_deg": 5.4883,
      "raan_deg": 73.5164,
      "arg_perigee_deg": 144.7223,
      "mean_anomaly_deg": 31.5329,
      "mean_motion_rev_day": 1.00275875
    },
    {
      "epoch": "2026-04-19T19:28:26.855616Z",
      "apogee_km": 35798.5525274839,
      "perigee_km": 35772.621837111794,
      "latitude_deg": 1.2949118510191147,
      "longitude_deg": 99.8110115119435,
      "height_km": 35772.72157127906,
      "semi_major_axis_km": 42163.724182297854,
      "eccentricity": 0.0003075,
      "inclination_deg": 5.4909,
      "raan_deg": 73.5036,
      "arg_perigee_deg": 145.8619,
      "mean_anomaly_deg": 20.3969,
      "mean_motion_rev_day": 1.0027538
    },
    {
      "epoch": "2026-04-20T10:52:32.685312Z",
      "apogee_km": 35798.74487943826,
      "perigee_km": 35772.58982832147,
      "latitude_deg": 3.363762395166294,
      "longitude_deg": 99.5852074899156,
      "height_km": 35788.95704714376,
      "semi_major_axis_km": 42163.80435387987,
      "eccentricity": 0.00031016,
      "inclination_deg": 5.4927,
      "raan_deg": 73.4936,
      "arg_perigee_deg": 146.4143,
      "mean_anomaly_deg": 251.5197,
      "mean_motion_rev_day": 1.00275094
    },
    {
      "epoch": "2026-04-21T21:05:59.019648Z",
      "apogee_km": 35798.790210738305,
      "perigee_km": 35772.943676320916,
      "latitude_deg": -1.2135098879478403,
      "longitude_deg": 99.73742009733341,
      "height_km": 35776.45854974686,
      "semi_major_axis_km": 42164.00394352961,
      "eccentricity": 0.0003065,
      "inclination_deg": 5.4974,
      "raan_deg": 73.4763,
      "arg_perigee_deg": 147.1676,
      "mean_anomaly_deg": 45.5632,
      "mean_motion_rev_day": 1.00274382
    },
    {
      "epoch": "2026-04-22T20:36:49.501728Z",
      "apogee_km": 35798.8880025212,
      "perigee_km": 35773.100419872426,
      "latitude_deg": -0.6194444311662288,
      "longitude_deg": 99.77278462497311,
      "height_km": 35775.548287782214,
      "semi_major_axis_km": 42164.131211196815,
      "eccentricity": 0.0003058,
      "inclination_deg": 5.5005,
      "raan_deg": 73.4642,
      "arg_perigee_deg": 147.2777,
      "mean_anomaly_deg": 39.1494,
      "mean_motion_rev_day": 1.00273928
    },
    {
      "epoch": "2026-04-22T23:45:05.449824Z",
      "apogee_km": 35798.91356504445,
      "perigee_km": 35773.08887366786,
      "latitude_deg": -4.421329450893525,
      "longitude_deg": 99.69010696512922,
      "height_km": 35785.367749342346,
      "semi_major_axis_km": 42164.13821935616,
      "eccentricity": 0.00030624,
      "inclination_deg": 5.5007,
      "raan_deg": 73.4617,
      "arg_perigee_deg": 147.3913,
      "mean_anomaly_deg": 86.2345,
      "mean_motion_rev_day": 1.00273903
    }
  ]
}